STARLINK-33551          
1 62110U 24220Y   25229.83350075  .00017369  00000+0  63912-3 0  9990
2 62110  42.9998 276.8462 0001171 275.6594  84.4124 15.27584829 42017
GUANGCHUAN 01           
1 62111U 24221A   25230.19585710  .00003922  00000+0  22798-3 0  9996
2 62111  49.9444 198.4648 0006901 154.6307 205.4984 15.14217234 40241
GUANGCHUAN 02           
1 62112U 24221B   25230.13088653  .00004032  00000+0  23393-3 0  9990
2 62112  49.9428 198.7513 0006729 203.4397 156.6247 15.14211477 40228
STARLINK-32311          
1 62114U 24222A   25229.88995370  .00014956  00000+0  55167-3 0  9996
2 62114  43.0010 192.1562 0001389 260.6000  99.4695 15.27594448 41911
STARLINK-32470          
1 62115U 24222B   25230.22409096  .00013252  00000+0  49000-3 0  9999
2 62115  43.0019 205.0703 0000345 165.2347 194.8515 15.27595080 41786
STARLINK-32502          
1 62116U 24222C   25229.65746083 -.00001770  00000+0 -54840-4 0  9998
2 62116  43.0002 208.5631 0000797 261.4285  98.6476 15.27574718 41601
STARLINK-32521          
1 62117U 24222D   25230.23226367  .00014601  00000+0  53887-3 0  9997
2 62117  43.0019 201.5557 0000773 288.8131  71.2637 15.27591991 41672
STARLINK-32549          
1 62118U 24222E   25230.20995730  .00012771  00000+0  47273-3 0  9990
2 62118  42.9961 204.9613 0000978 266.7059  93.3681 15.27583823 41699
STARLINK-32535          
1 62119U 24222F   25230.18874503  .00023295  00000+0  85283-3 0  9998
2 62119  42.9984 202.2062 0001998 268.2264  91.8359 15.27600113 41666
STARLINK-32548          
1 62120U 24222G   25229.99852716  .00015805  00000+0  58240-3 0  9990
2 62120  43.0006 206.8201 0001191 265.9147  94.1568 15.27592258 41599
STARLINK-32525          
1 62121U 24222H   25230.21638140  .00014346  00000+0  52959-3 0  9991
2 62121  42.9987 205.0106 0000722 257.2491 102.8280 15.27594190 41636
STARLINK-32628          
1 62122U 24222J   25230.23436900  .00013785  00000+0  50943-3 0  9991
2 62122  42.9988 205.1465 0001092 269.4313  90.6413 15.27586800 41783
STARLINK-32626          
1 62123U 24222K   25229.99207636  .00016955  00000+0  62163-3 0  9994
2 62123  43.0018 206.7721 0002165 254.5553 105.5059 15.27718156 41597
STARLINK-32608          
1 62124U 24222L   25229.63946889  .00017624  00000+0  64834-3 0  9997
2 62124  42.9987 208.4192 0001069 266.3981  93.6749 15.27585134 41535
STARLINK-32488          
1 62125U 24222M   25230.19855943  .00006246  00000+0  23666-3 0  9997
2 62125  43.0018 205.7417 0001960 286.2171  73.8465 15.27532343 41523
STARLINK-32490          
1 62126U 24222N   25230.21252937  .00015068  00000+0  55578-3 0  9994
2 62126  42.9988 204.9831 0000975 252.6064 107.4681 15.27590570 41634
STARLINK-32557          
1 62127U 24222P   25229.64346509  .00012664  00000+0  46876-3 0  9999
2 62127  43.0011 197.9182 0001212 269.0923  90.9790 15.27592128 41712
STARLINK-32568          
1 62128U 24222Q   25229.98824405  .00017515  00000+0  64409-3 0  9995
2 62128  42.9973 206.7418 0000547 250.2949 109.7843 15.27600764 41331
STARLINK-32462          
1 62129U 24222R   25229.98615836  .00016442  00000+0  60537-3 0  9998
2 62129  42.9981 203.2615 0001017 247.6677 112.4067 15.27596837 41630
STARLINK-32463          
1 62130U 24222S   25230.22023352  .00013702  00000+0  50638-3 0  9992
2 62130  42.9990 205.0381 0001249 263.6741  96.3968 15.27589356 41637
STARLINK-32550          
1 62131U 24222T   25229.66773959  .00020640  00000+0  75725-3 0  9997
2 62131  43.0017 208.6353 0002137 262.0942  97.9667 15.27587978 41597
STARLINK-32507          
1 62132U 24222U   25230.20610768  .00013943  00000+0  51505-3 0  9996
2 62132  42.9994 204.9346 0001612 263.8704  96.1964 15.27592271 41484
STARLINK-32245          
1 62133U 24222V   25229.65359821  .00018049  00000+0  66335-3 0  9993
2 62133  43.0019 208.5271 0001504 265.6535  94.4145 15.27602052 41700
STARLINK-32546          
1 62134U 24222W   25229.92462117  .00018217  00000+0  66931-3 0  9996
2 62134  43.0022 203.6650 0001921 278.9592  81.1042 15.27606995 41513
STARLINK-32545          
1 62135U 24222X   25230.20239538  .00014583  00000+0  53825-3 0  9999
2 62135  43.0010 205.7658 0002022 287.7693  72.2938 15.27589089 41671
STARLINK-32554          
1 62136U 24222Y   25230.23179886  .00008108  00000+0  30374-3 0  9992
2 62136  42.9987 205.1222 0001050 270.4714  89.6017 15.27588907 41686
STARLINK-32570          
1 62137U 24222Z   25229.64974667  .00015138  00000+0  55840-3 0  9992
2 62137  42.9997 208.4964 0001558 266.2951  93.7722 15.27585572 41691
KONDOR-FKA NO. 2        
1 62138U 24223A   25230.16686446  .00003745  00000+0  17845-3 0  9992
2 62138  97.4337  73.0735 0001713  87.5172 272.6259 15.19732145 39689
STARLINK-32529          
1 62139U 24224A   25230.05094422  .00020072  00000+0  73659-3 0  9996
2 62139  43.0029 228.3909 0001881 275.9895  84.0742 15.27595916 41276
STARLINK-32464          
1 62140U 24224B   25229.73171324  .00012378  00000+0  45843-3 0  9992
2 62140  43.0007 230.2617 0001791 277.4564  82.6084 15.27589214 41224
