OBJECT_NAME,OBJECT_ID,EPOCH,MEAN_MOTION,ECCENTRICITY,INCLINATION,RA_OF_ASC_NODE,ARG_OF_PERICENTER,MEAN_ANOMALY,EPHEMERIS_TYPE,CLASSIFICATION_TYPE,NORAD_CAT_ID,ELEMENT_SET_NO,REV_AT_EPOCH,BSTAR,MEAN_MOTION_DOT,MEAN_MOTION_DDOT
STARLINK-33551,2024-220Y,2025-08-17T20:00:14.464800,15.27584829,0.0001171,42.9998,276.8462,275.6594,84.4124,0,U,62110,999,4201,0.00063912,0.00017369,0.0
GUANGCHUAN 01,2024-221A,2025-08-18T04:42:02.053440,15.14217234,0.0006901,49.9444,198.4648,154.6307,205.4984,0,U,62111,999,4024,0.00022798,3.922e-05,0.0
GUANGCHUAN 02,2024-221B,2025-08-18T03:08:28.596192,15.14211477,0.0006729,49.9428,198.7513,203.4397,156.6247,0,U,62112,999,4022,0.00023393,4.032e-05,0.0
STARLINK-32311,2024-222A,2025-08-17T21:21:31.999680,15.27594448,0.0001389,43.001,192.1562,260.6,99.4695,0,U,62114,999,4191,0.00055167,0.00014956,0.0
STARLINK-32470,2024-222B,2025-08-18T05:22:41.458944,15.2759508,3.45e-05,43.0019,205.0703,165.2347,194.8515,0,U,62115,999,4178,0.00049,0.00013252,0.0
STARLINK-32502,2024-222C,2025-08-17T15:46:44.615712,15.27574718,7.97e-05,43.0002,208.5631,261.4285,98.6476,0,U,62116,999,4160,-5.484e-05,-1.77e-05,0.0
STARLINK-32521,2024-222D,2025-08-18T05:34:27.581088,15.27591991,7.73e-05,43.0019,201.5557,288.8131,71.2637,0,U,62117,999,4167,0.00053887,0.00014601,0.0
STARLINK-32549,2024-222E,2025-08-18T05:02:20.310720,15.27583823,9.78e-05,42.9961,204.9613,266.7059,93.3681,0,U,62118,999,4169,0.00047273,0.00012771,0.0
STARLINK-32535,2024-222F,2025-08-18T04:31:47.570592,15.27600113,0.0001998,42.9984,202.2062,268.2264,91.8359,0,U,62119,999,4166,0.00085283,0.00023295,0.0
STARLINK-32548,2024-222G,2025-08-17T23:57:52.746624,15.27592258,0.0001191,43.0006,206.8201,265.9147,94.1568,0,U,62120,999,4159,0.0005824,0.00015805,0.0
STARLINK-32525,2024-222H,2025-08-18T05:11:35.352960,15.2759419,7.22e-05,42.9987,205.0106,257.2491,102.828,0,U,62121,999,4163,0.00052959,0.00014346,0.0
STARLINK-32628,2024-222J,2025-08-18T05:37:29.481600,15.275868,0.0001092,42.9988,205.1465,269.4313,90.6413,0,U,62122,999,4178,0.00050943,0.00013785,0.0
STARLINK-32626,2024-222K,2025-08-17T23:48:35.397504,15.27718156,0.0002165,43.0018,206.7721,254.5553,105.5059,0,U,62123,999,4159,0.00062163,0.00016955,0.0
STARLINK-32608,2024-222L,2025-08-17T15:20:50.112096,15.27585134,0.0001069,42.9987,208.4192,266.3981,93.6749,0,U,62124,999,4153,0.00064834,0.00017624,0.0
STARLINK-32488,2024-222M,2025-08-18T04:45:55.534752,15.27532343,0.000196,43.0018,205.7417,286.2171,73.8465,0,U,62125,999,4152,0.00023666,6.246e-05,0.0
STARLINK-32490,2024-222N,2025-08-18T05:06:02.537568,15.2759057,9.75e-05,42.9988,204.9831,252.6064,107.4681,0,U,62126,999,4163,0.00055578,0.00015068,0.0
STARLINK-32557,2024-222P,2025-08-17T15:26:35.383776,15.27592128,0.0001212,43.0011,197.9182,269.0923,90.979,0,U,62127,999,4171,0.00046876,0.00012664,0.0
STARLINK-32568,2024-222Q,2025-08-17T23:43:04.285920,15.27600764,5.47e-05,42.9973,206.7418,250.2949,109.7843,0,U,62128,999,4133,0.00064409,0.00017515,0.0
STARLINK-32462,2024-222R,2025-08-17T23:40:04.082304,15.27596837,0.0001017,42.9981,203.2615,247.6677,112.4067,0,U,62129,999,4163,0.00060537,0.00016442,0.0
STARLINK-32463,2024-222S,2025-08-18T05:17:08.176128,15.27589356,0.0001249,42.999,205.0381,263.6741,96.3968,0,U,62130,999,4163,0.00050638,0.00013702,0.0
STARLINK-32550,2024-222T,2025-08-17T16:01:32.700576,15.27587978,0.0002137,43.0017,208.6353,262.0942,97.9667,0,U,62131,999,4159,0.00075725,0.0002064,0.0
STARLINK-32507,2024-222U,2025-08-18T04:56:47.703552,15.27592271,0.0001612,42.9994,204.9346,263.8704,96.1964,0,U,62132,999,4148,0.00051505,0.00013943,0.0
STARLINK-32245,2024-222V,2025-08-17T15:41:10.885344,15.27602052,0.0001504,43.0019,208.5271,265.6535,94.4145,0,U,62133,999,4170,0.00066335,0.00018049,0.0
STARLINK-32546,2024-222W,2025-08-17T22:11:27.269088,15.27606995,0.0001921,43.0022,203.665,278.9592,81.1042,0,U,62134,999,4151,0.00066931,0.00018217,0.0
STARLINK-32545,2024-222X,2025-08-18T04:51:26.960832,15.27589089,0.0002022,43.001,205.7658,287.7693,72.2938,0,U,62135,999,4167,0.00053825,0.00014583,0.0
STARLINK-32554,2024-222Y,2025-08-18T05:33:47.421504,15.27588907,0.000105,42.9987,205.1222,270.4714,89.6017,0,U,62136,999,4168,0.00030374,8.108e-05,0.0
STARLINK-32570,2024-222Z,2025-08-17T15:35:38.112288,15.27585572,0.0001558,42.9997,208.4964,266.2951,93.7722,0,U,62137,999,4169,0.0005584,0.00015138,0.0
KONDOR-FKA NO. 2,2024-223A,2025-08-18T04:00:17.089344,15.19732145,0.0001713,97.4337,73.0735,87.5172,272.6259,0,U,62138,999,3968,0.00017845,3.745e-05,0.0
STARLINK-32529,2024-224A,2025-08-18T01:13:21.580608,15.27595916,0.0001881,43.0029,228.3909,275.9895,84.0742,0,U,62139,999,4127,0.00073659,0.00020072,0.0
STARLINK-32464,2024-224B,2025-08-17T17:33:40.023936,15.27589214,0.0001791,43.0007,230.2617,277.4564,82.6084,0,U,62140,999,4122,0.00045843,0.00012378,0.0
